0 COSMOS 628
1 07094U 74001A   13281.69462916  .00000028  00000-0  12763-4 0  6596
2 07094 082.9600 012.7225 0037975 130.1622 336.5538 13.75619747993668
0 COSMOS 628
1 07094U 74001A   13282.79424174  .00000022  00000-0  68524-5 0  6605
2 07094 082.9600 011.9089 0037984 127.2078 021.9712 13.75619938993817
0 COSMOS 628
1 07094U 74001A   13283.81232019  .00000030  00000-0  15194-4 0  6618
2 07094 082.9601 011.1556 0037996 124.4599 023.6351 13.75619978993956
0 COSMOS 628
1 07094U 74001A   13285.84497209  .00000045  00000-0  30133-4 0  6635
2 07094 082.9601 009.6519 0038036 118.9798 009.5997 13.75619821994230
0 COSMOS 628
1 07094U 74001A   13286.86523231  .00000057  00000-0  42388-4 0  6642
2 07094 082.9599 008.8971 0038037 116.2279 022.0663 13.75619772994375
0 COSMOS 628
1 07094U 74001A   13288.30406520  .00000068  00000-0  53960-4 0  6655
2 07094 082.9597 007.8328 0038046 112.3439 307.3638 13.75619839994570
0 COSMOS 628
1 07094U 74001A   13289.39267191  .00000070  00000-0  56251-4 0  6664
2 07094 082.9595 007.0275 0038026 109.4180 298.2813 13.75620052994728
0 COSMOS 628
1 07094U 74001A   13290.57036094  .00000069  00000-0  55340-4 0  6679
2 07094 082.9592 006.1563 0038016 106.2420 010.3564 13.75620104994887
0 COSMOS 628
1 07094U 74001A   13291.81150696  .00000063  00000-0  48968-4 0  6685
2 07094 082.9589 005.2379 0038044 102.9053 036.6691 13.75620432995050
0 COSMOS 628
1 07094U 74001A   13292.82962627  .00000064  00000-0  50153-4 0  6693
2 07094 082.9588 004.4846 0038059 100.1608 038.5336 13.75620674995191
0 COSMOS 628
1 07094U 74001A   13294.19503713  .00000059  00000-0  44578-4 0  6702
2 07094 082.9586 003.4742 0038063 096.4980 320.2158 13.75620928995384
0 COSMOS 628
1 07094U 74001A   13295.35711683  .00000048  00000-0  33264-4 0  6717
2 07094 082.9587 002.6143 0038023 093.3721 314.9866 13.75621039995544
